#aV2012  2 13  0  0   .00000000      96 DD+AD WGS84 FIT  NGA
## 1675  86400.00000000   900.00000000 55970  .0000000000000
+   32     1  2  3  4  5  6  7  8  9 10 11 12 13 14 15 16 17
+         18 19 20 21 22 23 24 25 26 27 28 29 30 31 32  0  0
+          0  0  0  0  0  0  0  0  0  0  0  0  0  0  0  0  0
+          0  0  0  0  0  0  0  0  0  0  0  0  0  0  0  0  0
+          0  0  0  0  0  0  0  0  0  0  0  0  0  0  0  0  0
++         0  0  0  0  0  0  0  0  0  0  0  0  0  0  0  0  0
++         0  0  0  0  0  0  0  0  0  0  0  0  0  0  0  0  0
++         0  0  0  0  0  0  0  0  0  0  0  0  0  0  0  0  0
++         0  0  0  0  0  0  0  0  0  0  0  0  0  0  0  0  0
++         0  0  0  0  0  0  0  0  0  0  0  0  0  0  0  0  0
%c cc cc ccc ccc cccc cccc cccc cccc ccccc ccccc ccccc ccccc
%c cc cc ccc ccc cccc cccc cccc cccc ccccc ccccc ccccc ccccc
%f  0.0000000  0.000000000  0.00000000000  0.000000000000000
%f  0.0000000  0.000000000  0.00000000000  0.000000000000000
%i    0    0    0    0      0      0      0      0         0
%i    0    0    0    0      0      0      0      0         0
/*      NGA, ST. LOUIS,MO.                                  
/*   EPHEMERIS COMPUTED FROM  3 DAYS OF DATA                
/* CCCCCCCCCCCCCCCCCCCCCCCCCCCCCCCCCCCCCCCCCCCCCCCCCCCCCCCCC
/* CCCCCCCCCCCCCCCCCCCCCCCCCCCCCCCCCCCCCCCCCCCCCCCCCCCCCCCCC
*  2012  2 13 20 45   .00000000                                                 
P  1 -13791.964517   8738.132608  20931.009680    210.166017                    
V  1  -3610.680720 -26382.964748   8645.244028       .100034                    
P  2  13459.827378  17050.098390 -15514.243671    378.851093                    
V  2    211.140715  19852.125683  21358.415808       .015651                    
P  3 -23945.007909 -10975.068003  -4898.022558      9.157373                    
V  3   6366.416692  -1614.824986 -30075.334420       .050309                    
P  4   7772.671593  24240.433040  -7207.788455     93.102769                    
V  4  -2639.242676   9262.885951  29613.727655       .115340                    
P  5  17918.826000   3992.918586 -19262.362085   -282.396663                    
V  5 -18980.383791  15386.295320 -14361.673355      -.044796                    
P  6 -21510.372646 -13981.396824  -7277.996436     29.974705                    
V  6   9877.284388    432.324569 -29209.777886       .014250                    
P  7  -7307.455831  21511.379939 -13531.581650     56.906363                    
V  7  -3523.891288 -17043.753421 -25386.418263       .027720                    
P  8  -1170.509208  26132.310219  -2073.822497       .618028                    
V  8  -2129.298569  -2730.111174 -32798.888140       .000447                    
P  9  13971.978237  -4277.295593  21634.371476    138.322249                    
V  9   3498.095532  28519.144342   3270.416312       .024416                    
P 10    954.292219  17180.760021 -20379.850039    -28.934220                    
V 10 -21697.047898  13426.915955  10825.883395      -.012561                    
P 11 -16837.654330   1806.504160  20124.853802   -232.188840                    
V 11  -8959.366349 -25156.732500  -4815.823834      -.035967                    
P 12  23354.382638 -10055.826639   7341.373463     52.272664                    
V 12  -6404.646151   7172.931573  30410.645883       .021719                    
P 13 -10732.224028  10632.915834 -21995.838505    225.158317                    
V 13 -23846.329495 -13703.426925   4963.607114      -.021447                    
P 14  -9563.353526 -18090.537535  17180.241114    193.747436                    
V 14  19493.892148   8873.100040  20270.558778       .013499                    
P 15  24174.852658   1572.498021  11125.145882    -93.089721                    
V 15  11930.683787   7940.299793 -26828.103001       .004985                    
P 16 -17163.178965  -4618.181537 -19819.061800   -223.262159                    
V 16  20444.004193 -14510.866154 -14011.714786      -.016492                    
P 17   6636.470673  17840.049143  18787.034199    148.910060                    
V 17 -21569.143794  -9220.913806  16283.592708      -.023219                    
P 18  14175.733621 -19709.778959  10677.904776    181.462970                    
V 18  12832.227936  -4785.816263 -27095.268113       .018056                    
P 19 -24320.824853  -6260.995293   9175.003582   -235.591588                    
V 19  -8989.525998  -7661.920820 -28572.648963      -.038684                    
P 20 -22427.160446  13354.438355   4542.048580     61.868581                    
V 20   2387.018318  -6674.183951  30397.685470       .007462                    
P 21   4488.054598 -24065.650989  -9064.630826   -204.178106                    
V 21   5109.147415  11962.881288 -28419.107487      -.025049                    
P 22    265.643462 -18083.751390  19590.561863    142.996685                    
V 22  21108.125121 -12846.470174 -12367.913904       .000204                    
P 23 -19998.086427   3920.477836 -17196.166757    233.200452                    
V 23 -19072.353684 -10560.827153  19385.497264      -.034009                    
P 24  -3395.289922 -15511.595255 -21388.549517   -255.506888                    
V 24  22223.784016 -15104.870946   7626.900023       .002558                    
P 25  19265.484411 -17770.538221  -4170.922261     31.629373                    
V 25   5791.940445  -1025.476552  31337.618164       .002221                    
P 26  23065.445583  13585.455903  -1037.030526      -.571797                    
V 26  -1322.395915   1236.558397 -31985.429967      -.530826                    
P 27  15392.996243   4730.192243  21832.977753    356.516689                    
V 27   3426.296190  25875.950224  -7820.741039       .040758                    
P 28  -3946.744796  18189.912575  19409.358726    112.458524                    
V 28 -20313.781997  11900.427846 -15962.518073       .038052                    
P 29  12404.788898 -10178.466526 -21090.790282    284.392314                    
V 29  23752.107787  12726.015733   7842.197460       .036353                    
P 30  -9318.420262 -12342.813891 -21945.929028    -43.923648                    
V 30  20319.319005 -17837.322327   1435.584710      -.141418                    
P 31  -7418.824587 -24015.320090  -7994.371890    207.780585                    
V 31   1366.821767 -10627.011275  30135.454977       .046395                    
P 32 -23391.025276   4378.780863  11516.899425   -407.009093                    
V 32  10947.503700  -9902.958677  26977.117247      -.053252                    
EOF
